{
  "type": "FeatureCollection",
  "features": [
    {
      "type": "Feature",
      "properties": {
        "norad_id": 43707,
        "name": "BEIDOU-3 M18 (C37)",
        "group": "beidou",
        "lat": 54.08405588854231,
        "lon": -85.10533216491145,
        "alt_km": 21524.08715923484,
        "timestamp": "2025-12-07T14:37:05.470234+00:00",
        "meta_object_name": "BEIDOU-3 M18 (C37)",
        "meta_object_id": "2018-093B",
        "meta_epoch": "2025-12-04T06:09:34.457184",
        "meta_mean_motion": 1.86226429,
        "meta_eccentricity": 0.0006367,
        "meta_inclination": 54.1734,
        "meta_ra_of_asc_node": 188.9019,
        "meta_arg_of_pericenter": 351.3735,
        "meta_mean_anomaly": 8.7081,
        "meta_ephemeris_type": 0,
        "meta_classification_type": "U",
        "meta_norad_cat_id": 43707,
        "meta_element_set_no": 999,
        "meta_rev_at_epoch": 4790,
        "meta_bstar": 0,
        "meta_mean_motion_dot": 1.06e-06,
        "meta_mean_motion_ddot": 0,
        "tle_line1": "1 43707U 18093B   25338.25664881  .00000106  00000+0  00000+0 0  9998",
        "tle_line2": "2 43707  54.1734 188.9019 0006367 351.3735   8.7081  1.86226429 47906"
      },
      "geometry": {
        "type": "Point",
        "coordinates": [
          -85.10533216491145,
          54.08405588854231
        ]
      }
    },
    {
      "type": "Feature",
      "properties": {
        "norad_id": 44204,
        "name": "BEIDOU-3 IGSO-1 (C38)",
        "group": "beidou",
        "lat": 8.508378551843577,
        "lon": 44.94074484216751,
        "alt_km": 35890.04613992642,
        "timestamp": "2025-12-07T14:37:05.470245+00:00",
        "meta_object_name": "BEIDOU-3 IGSO-1 (C38)",
        "meta_object_id": "2019-023A",
        "meta_epoch": "2025-11-19T14:15:02.708640",
        "meta_mean_motion": 1.00252177,
        "meta_eccentricity": 0.0026966,
        "meta_inclination": 58.4003,
        "meta_ra_of_asc_node": 39.8168,
        "meta_arg_of_pericenter": 221.2202,
        "meta_mean_anomaly": 126.9723,
        "meta_ephemeris_type": 0,
        "meta_classification_type": "U",
        "meta_norad_cat_id": 44204,
        "meta_element_set_no": 999,
        "meta_rev_at_epoch": 510,
        "meta_bstar": 0,
        "meta_mean_motion_dot": -2.26e-06,
        "meta_mean_motion_ddot": 0,
        "tle_line1": "1 44204U 19023A   25323.59378135 -.00000226  00000+0  00000+0 0  9994",
        "tle_line2": "2 44204  58.4003  39.8168 0026966 221.2202 126.9723  1.00252177  5102"
      },
      "geometry": {
        "type": "Point",
        "coordinates": [
          44.94074484216751,
          8.508378551843577
        ]
      }
    },
    {
      "type": "Feature",
      "properties": {
        "norad_id": 44231,
        "name": "BEIDOU-2 G8 (C01)",
        "group": "beidou",
        "lat": 0.1915236045222261,
        "lon": 80.53487837289936,
        "alt_km": 35799.63321476615,
        "timestamp": "2025-12-07T14:37:05.470260+00:00",
        "meta_object_name": "BEIDOU-2 G8 (C01)",
        "meta_object_id": "2019-027A",
        "meta_epoch": "2025-12-06T21:12:05.880960",
        "meta_mean_motion": 1.00269281,
        "meta_eccentricity": 0.00085444,
        "meta_inclination": 1.6465,
        "meta_ra_of_asc_node": 74.7141,
        "meta_arg_of_pericenter": 255.0188,
        "meta_mean_anomaly": 208.7624,
        "meta_ephemeris_type": 0,
        "meta_classification_type": "U",
        "meta_norad_cat_id": 44231,
        "meta_element_set_no": 999,
        "meta_rev_at_epoch": 2415,
        "meta_bstar": 0,
        "meta_mean_motion_dot": -2.42e-06,
        "meta_mean_motion_ddot": 0,
        "tle_line1": "1 44231U 19027A   25340.88340140 -.00000242  00000+0  00000+0 0  9992",
        "tle_line2": "2 44231   1.6465  74.7141 0008544 255.0188 208.7624  1.00269281 24152"
      },
      "geometry": {
        "type": "Point",
        "coordinates": [
          80.53487837289936,
          0.1915236045222261
        ]
      }
    },
    {
      "type": "Feature",
      "properties": {
        "norad_id": 44337,
        "name": "BEIDOU-3 IGSO-2 (C39)",
        "group": "beidou",
        "lat": -52.54110511660804,
        "lon": 45.81428326745318,
        "alt_km": 35696.19270185675,
        "timestamp": "2025-12-07T14:37:05.470272+00:00",
        "meta_object_name": "BEIDOU-3 IGSO-2 (C39)",
        "meta_object_id": "2019-035A",
        "meta_epoch": "2025-12-01T05:17:49.661952",
        "meta_mean_motion": 1.00274502,
        "meta_eccentricity": 0.00376064,
        "meta_inclination": 55.2223,
        "meta_ra_of_asc_node": 160.6035,
        "meta_arg_of_pericenter": 202.2564,
        "meta_mean_anomaly": 266.4761,
        "meta_ephemeris_type": 0,
        "meta_classification_type": "U",
        "meta_norad_cat_id": 44337,
        "meta_element_set_no": 999,
        "meta_rev_at_epoch": 2368,
        "meta_bstar": 0,
        "meta_mean_motion_dot": -2.5e-07,
        "meta_mean_motion_ddot": 0,
        "tle_line1": "1 44337U 19035A   25335.22071368 -.00000025  00000+0  00000+0 0  9992",
        "tle_line2": "2 44337  55.2223 160.6035 0037606 202.2564 266.4761  1.00274502 23688"
      },
      "geometry": {
        "type": "Point",
        "coordinates": [
          45.81428326745318,
          -52.54110511660804
        ]
      }
    },
    {
      "type": "Feature",
      "properties": {
        "norad_id": 44542,
        "name": "BEIDOU-3 M24 (C46)",
        "group": "beidou",
        "lat": 31.516609878555776,
        "lon": -144.73545091353748,
        "alt_km": 21498.633171699432,
        "timestamp": "2025-12-07T14:37:05.470287+00:00",
        "meta_object_name": "BEIDOU-3 M24 (C46)",
        "meta_object_id": "2019-061A",
        "meta_epoch": "2025-12-04T20:45:16.055424",
        "meta_mean_motion": 1.86229249,
        "meta_eccentricity": 0.00095755,
        "meta_inclination": 54.4001,
        "meta_ra_of_asc_node": 189.282,
        "meta_arg_of_pericenter": 24.0464,
        "meta_mean_anomaly": 336.0883,
        "meta_ephemeris_type": 0,
        "meta_classification_type": "U",
        "meta_norad_cat_id": 44542,
        "meta_element_set_no": 999,
        "meta_rev_at_epoch": 4217,
        "meta_bstar": 0,
        "meta_mean_motion_dot": 9.8e-07,
        "meta_mean_motion_ddot": 0,
        "tle_line1": "1 44542U 19061A   25338.86476916  .00000098  00000+0  00000+0 0  9999",
        "tle_line2": "2 44542  54.4001 189.2820 0009575  24.0464 336.0883  1.86229249 42179"
      },
      "geometry": {
        "type": "Point",
        "coordinates": [
          -144.73545091353748,
          31.516609878555776
        ]
      }
    },
    {
      "type": "Feature",
      "properties": {
        "norad_id": 44543,
        "name": "BEIDOU-3 M23 (C45)",
        "group": "beidou",
        "lat": -36.6642195462676,
        "lon": 156.92521733532533,
        "alt_km": 21527.101528408468,
        "timestamp": "2025-12-07T14:37:05.470299+00:00",
        "meta_object_name": "BEIDOU-3 M23 (C45)",
        "meta_object_id": "2019-061B",
        "meta_epoch": "2025-12-04T17:20:06.370944",
        "meta_mean_motion": 1.86227466,
        "meta_eccentricity": 0.0006129,
        "meta_inclination": 54.3989,
        "meta_ra_of_asc_node": 189.2553,
        "meta_arg_of_pericenter": 23.0087,
        "meta_mean_anomaly": 154.4182,
        "meta_ephemeris_type": 0,
        "meta_classification_type": "U",
        "meta_norad_cat_id": 44543,
        "meta_element_set_no": 999,
        "meta_rev_at_epoch": 4217,
        "meta_bstar": 0,
        "meta_mean_motion_dot": 1e-06,
        "meta_mean_motion_ddot": 0,
        "tle_line1": "1 44543U 19061B   25338.72229596  .00000100  00000+0  00000+0 0  9999",
        "tle_line2": "2 44543  54.3989 189.2553 0006129  23.0087 154.4182  1.86227466 42172"
      },
      "geometry": {
        "type": "Point",
        "coordinates": [
          156.92521733532533,
          -36.6642195462676
        ]
      }
    },
    {
      "type": "Feature",
      "properties": {
        "norad_id": 44709,
        "name": "BEIDOU-3 IGSO-3 (C40)",
        "group": "beidou",
        "lat": 41.38031255364478,
        "lon": 65.13049112903552,
        "alt_km": 35709.40624752094,
        "timestamp": "2025-12-07T14:37:05.470311+00:00",
        "meta_object_name": "BEIDOU-3 IGSO-3 (C40)",
        "meta_object_id": "2019-073A",
        "meta_epoch": "2025-11-20T07:11:22.740000",
        "meta_mean_motion": 1.00250097,
        "meta_eccentricity": 0.0044538,
        "meta_inclination": 55.163,
        "meta_ra_of_asc_node": 283.159,
        "meta_arg_of_pericenter": 191.5856,
        "meta_mean_anomaly": 168.2409,
        "meta_ephemeris_type": 0,
        "meta_classification_type": "U",
        "meta_norad_cat_id": 44709,
        "meta_element_set_no": 999,
        "meta_rev_at_epoch": 2236,
        "meta_bstar": 0,
        "meta_mean_motion_dot": -2.06e-06,
        "meta_mean_motion_ddot": 0,
        "tle_line1": "1 44709U 19073A   25324.29956875 -.00000206  00000+0  00000+0 0  9998",
        "tle_line2": "2 44709  55.1630 283.1590 0044538 191.5856 168.2409  1.00250097 22360"
      },
      "geometry": {
        "type": "Point",
        "coordinates": [
          65.13049112903552,
          41.38031255364478
        ]
      }
    }
  ]
}